49089,ONEWEB-0300,2021,109.72,148.0,+,87.89,Active,1,LEO,Kazakhstan,UK,Commercial,Communications,Soyuz,1 49089U 21075Q   25004.24673181  .00000423  00000+0  11395-2 0  9997,2 49089  87.8878  95.9842 0001395  98.4858 261.6428 13.12445030165829,13.1244503,0.0001395,LEO
49090,ONEWEB-0301,2021,109.72,148.0,+,87.89,Active,1,LEO,Kazakhstan,UK,Commercial,Communications,Soyuz,1 49090U 21075R   25004.53546213  .00000434  00000+0  11700-2 0  9998,2 49090  87.8880  95.9313 0001412 100.7916 259.3371 13.12445911166212,13.12445911,0.0001412,LEO
49091,ONEWEB-0302,2021,109.72,148.0,+,87.89,Active,1,LEO,Kazakhstan,UK,Commercial,Communications,Soyuz,1 49091U 21075S   25004.67495824  .00000039  00000+0  73336-4 0  9991,2 49091  87.8878  95.9033 0002095 113.4416 246.6933 13.12446071166225,13.12446071,0.0002095,LEO
49092,ONEWEB-0304,2021,109.29,148.0,+,87.91,Active,1,LEO,Kazakhstan,UK,Commercial,Communications,Soyuz,1 49092U 21075T   25004.72853842  .00000109  00000+0  24734-3 0  9991,2 49092  87.9104 111.1511 0001846 103.3061 256.8277 13.17650310164969,13.1765031,0.0001846,LEO
49093,ONEWEB-0305,2021,109.29,148.0,+,87.91,Active,1,LEO,Kazakhstan,UK,Commercial,Communications,Soyuz,1 49093U 21075U   25004.72178912  .00000145  00000+0  34012-3 0  9990,2 49093  87.9099 111.1340 0002140  95.5230 264.6145 13.17650551164981,13.17650551,0.000214,LEO
49094,ONEWEB-0308,2021,109.72,148.0,+,87.89,Active,1,LEO,Kazakhstan,UK,Commercial,Communications,Soyuz,1 49094U 21075V   25004.51598946 -.00000245  00000+0 -71751-3 0  9995,2 49094  87.8876  95.9318 0001618 105.0973 255.0335 13.12445975165217,13.12445975,0.0001618,LEO
49095,ONEWEB-0309,2021,109.29,148.0,+,87.91,Active,1,LEO,Kazakhstan,UK,Commercial,Communications,Soyuz,1 49095U 21075W   25004.34548122  .00000147  00000+0  34527-3 0  9997,2 49095  87.9102 111.2199 0002043 118.8455 241.2881 13.17650921163934,13.17650921,0.0002043,LEO
49096,ONEWEB-0310,2021,109.72,148.0,+,87.89,Active,1,LEO,Kazakhstan,UK,Commercial,Communications,Soyuz,1 49096U 21075X   25004.53059432  .00000285  00000+0  75741-3 0  9996,2 49096  87.8886  95.9555 0001777 109.5132 250.6188 13.12444526165842,13.12444526,0.0001777,LEO
